GLOBALSTAR M075         
1 37192U 10054E   26016.43078200 -.00000069  00000+0  19396-3 0  9997
2 37192  51.9935 252.2591 0000872  72.6826 100.0226 12.62263611702774
GLOBALSTAR M073         
1 37193U 10054F   26016.56858516 -.00000117  00000+0 -74990-4 0  9995
2 37193  52.0043 165.8213 0001189  92.4965 344.8695 12.62268994704783
GLOBALSTAR M083         
1 37739U 11033A   26016.56742979 -.00000115  00000+0 -60083-4 0  9990
2 37739  51.9855 114.2610 0000827 100.8291 273.1230 12.62266480673806
GLOBALSTAR M088         
1 37740U 11033B   26016.41221835 -.00000094  00000+0  56745-4 0  9994
2 37740  52.0237  20.7929 0000217 107.5121  40.3908 12.62271588669320
GLOBALSTAR M091         
1 37741U 11033C   26016.26512067 -.00000095  00000+0  46358-4 0  9998
2 37741  52.0023 344.4327 0000358  38.0607 100.1245 12.62268639670093
GLOBALSTAR M085         
1 37742U 11033D   26016.49660796 -.00000076  00000+0  15347-3 0  9999
2 37742  52.0141 294.8887 0000757  41.3126 129.8481 12.62268195670637
GLOBALSTAR M081         
1 37743U 11033E   26014.22114887 -.00000092  00000+0  64041-4 0  9998
2 37743  51.9976 304.4229 0000789  52.4090  94.8160 12.62271749670496
GLOBALSTAR M089         
1 37744U 11033F   26016.61132027 -.00000063  00000+0  22870-3 0  9991
2 37744  51.9916 251.3352 0001071  87.9570 305.4573 12.62263650671648
